H1 CPF 01  gfz 2021 02 17 13  5482 tandemx   
H2 1003001  6202 36605    2021 02 17 12 59 42 2021 02 22 00 00 42   120 1 1  0 0 0
H9
10 0 59262  79902.000000  0   -2012680.388   2112119.835   6229517.672
10 0 59262  80022.000000  0   -2310307.216   2874706.906   5807699.765
10 0 59262  80142.000000  0   -2554642.716   3591834.787   5283738.536
10 0 59262  80262.000000  0   -2742316.530   4249993.238   4666812.479
10 0 59262  80382.000000  0   -2871173.948   4836645.601   3967745.080
10 0 59262  80502.000000  0   -2940297.866   5340475.146   3198818.493
10 0 59262  80622.000000  0   -2950004.762   5751611.410   2373558.168
10 0 59262  80742.000000  0   -2901815.022   6061830.777   1506493.032
10 0 59262  80862.000000  0   -2798397.860   6264727.111    612895.386
10 0 59262  80982.000000  0   -2643491.832   6355848.197   -291494.809
10 0 59262  81102.000000  0   -2441803.620   6332793.899  -1190755.988
10 0 59262  81222.000000  0   -2198886.954   6195272.614  -2069076.663
10 0 59262  81342.000000  0   -1921002.905   5945110.907  -2911042.990
10 0 59262  81462.000000  0   -1614968.174   5586221.743  -3701912.113
10 0 59262  81582.000000  0   -1287996.098   5124533.598  -4427871.249
10 0 59262  81702.000000  0    -947533.295   4567880.415  -5076275.969
10 0 59262  81822.000000  0    -601096.127   3925858.351  -5635863.963
10 0 59262  81942.000000  0    -256109.814   3209651.101  -6096942.910
10 0 59262  82062.000000  0      80246.151   2431826.911  -6451547.957
10 0 59262  82182.000000  0     401182.200   1606114.126  -6693566.813
10 0 59262  82302.000000  0     700430.746    747159.651  -6818835.496
10 0 59262  82422.000000  0     972364.690   -129727.825  -6825202.192
10 0 59262  82542.000000  0    1212099.870  -1008845.699  -6712559.709
10 0 59262  82662.000000  0    1415580.118  -1874371.572  -6482845.390
10 0 59262  82782.000000  0    1579644.554  -2710639.837  -6140011.681
10 0 59262  82902.000000  0    1702076.844  -3502419.503  -5689967.080
10 0 59262  83022.000000  0    1781634.211  -4235191.204  -5140485.298
10 0 59262  83142.000000  0    1818056.370  -4895414.695  -4501080.446
10 0 59262  83262.000000  0    1812054.405  -5470782.439  -3782853.620
10 0 59262  83382.000000  0    1765278.855  -5950457.832  -2998310.359
10 0 59262  83502.000000  0    1680266.695  -6325290.259  -2161149.358
10 0 59262  83622.000000  0    1560369.584  -6588000.899  -1286025.577
10 0 59262  83742.000000  0    1409663.941  -6733335.276   -388293.293
10 0 59262  83862.000000  0    1232844.741  -6758178.310    516268.756
10 0 59262  83982.000000  0    1035106.208  -6661625.656   1411741.282
10 0 59262  84102.000000  0     822010.914  -6445012.855   2282353.921
10 0 59262  84222.000000  0     599352.756  -6111896.927   3112773.136
10 0 59262  84342.000000  0     373014.600  -5667992.540   3888379.741
10 0 59262  84462.000000  0     148826.029  -5121066.539   4595530.439
10 0 59262  84582.000000  0     -67574.972  -4480793.115   5221800.252
10 0 59262  84702.000000  0    -270873.490  -3758572.510   5756200.171
10 0 59262  84822.000000  0    -456198.738  -2967318.152   6189367.481
10 0 59262  84942.000000  0    -619233.026  -2121216.755   6513723.285
10 0 59262  85062.000000  0    -756306.195  -1235470.039   6723597.624
10 0 59262  85182.000000  0    -864473.818   -326019.921   6815324.054
10 0 59262  85302.000000  0    -941578.373    590739.645   6787300.590
10 0 59262  85422.000000  0    -986291.442   1498258.187   6640015.824
10 0 59262  85542.000000  0    -998136.183   2380126.948   6376040.740
10 0 59262  85662.000000  0    -977490.600   3220375.327   5999986.729
10 0 59262  85782.000000  0    -925571.707   4003761.670   5518429.952
10 0 59262  85902.000000  0    -844399.844   4716052.987   4939801.837
10 0 59262  86022.000000  0    -736744.936   5344289.987   4274248.028
10 0 59262  86142.000000  0    -606054.589   5877031.320   3533453.722
10 0 59262  86262.000000  0    -456366.217   6304570.072   2730442.918
10 0 59262  86382.000000  0    -292205.769   6619124.373   1879349.102
10 0 59263    102.000000  0    -118472.068   6814987.339    995160.401
10 0 59263    222.000000  0      59687.917   6888636.609     93449.777
10 0 59263    342.000000  0     237009.963   6838801.678   -809907.116
10 0 59263    462.000000  0     408246.801   6666484.933  -1699021.540
10 0 59263    582.000000  0     568299.929   6374935.332  -2558279.268
10 0 59263    702.000000  0     712347.335   5969578.743  -3372620.138
10 0 59263    822.000000  0     835964.690   5457906.516  -4127805.029
10 0 59263    942.000000  0     935236.471   4849324.703  -4810664.594
10 0 59263   1062.000000  0    1006854.609   4154968.647  -5409324.592
10 0 59263   1182.000000  0    1048202.317   3387488.639  -5913404.464
10 0 59263   1302.000000  0    1057421.109   2560811.407  -6314187.745
10 0 59263   1422.000000  0    1033460.547   1689882.396  -6604760.687
10 0 59263   1542.000000  0     976109.671    790396.106  -6780120.211
10 0 59263   1662.000000  0     886009.915   -121483.623  -6837251.638
10 0 59263   1782.000000  0     764649.546  -1029408.999  -6775174.422
10 0 59263   1902.000000  0     614339.080  -1917134.159  -6594955.405
10 0 59263   2022.000000  0     438169.287  -2768796.918  -6299692.461
10 0 59263   2142.000000  0     239951.068  -3569197.101  -5894469.598
10 0 59263   2262.000000  0      24137.993  -4304066.239  -5386277.663
10 0 59263   2382.000000  0    -204266.031  -4960322.339  -4783904.626
10 0 59263   2502.000000  0    -439814.142  -5526307.887  -4097795.475
10 0 59263   2622.000000  0    -676736.776  -5992005.848  -3339881.320
10 0 59263   2742.000000  0    -909072.184  -6349227.948  -2523379.609
10 0 59263   2862.000000  0   -1130804.755  -6591771.488  -1662568.677
10 0 59263   2982.000000  0   -1336007.747  -6715540.317   -772538.242
10 0 59263   3102.000000  0   -1518986.802  -6718624.704    131078.808
10 0 59263   3222.000000  0   -1674420.920  -6601338.030   1032387.249
10 0 59263   3342.000000  0   -1797497.444  -6366209.128   1915517.371
10 0 59263   3462.000000  0   -1884036.997  -6017929.644   2764913.787
10 0 59263   3582.000000  0   -1930604.845  -5563257.115   3565618.146
10 0 59263   3702.000000  0   -1934605.756  -5010877.057   4303538.862
10 0 59263   3822.000000  0   -1894360.076  -4371228.610   4965702.127
10 0 59263   3942.000000  0   -1809160.597  -3656298.853   5540480.841
10 0 59263   4062.000000  0   -1679307.920  -2879388.205   6017797.614
10 0 59263   4182.000000  0   -1506122.686  -2054854.657   6389295.817
10 0 59263   4302.000000  0   -1291936.072  -1197844.166   6648479.605
10 0 59263   4422.000000  0   -1040059.678   -324009.141   6790822.061
10 0 59263   4542.000000  0    -754735.028    550778.496   6813838.410
10 0 59263   4662.000000  0    -441062.211   1410714.711   6717127.298
10 0 59263   4782.000000  0    -104908.529   2240348.697   6502377.611
10 0 59263   4902.000000  0     247200.970   3024860.368   6173340.529
10 0 59263   5022.000000  0     608208.710   3750325.631   5735768.087
10 0 59263   5142.000000  0     970663.877   4403966.816   5197318.241
10 0 59263   5262.000000  0    1326873.982   4974382.947   4567426.778
10 0 59263   5382.000000  0    1669065.488   5451755.812   3857146.565
10 0 59263   5502.000000  0    1989550.509   5828027.086   3078959.230
10 0 59263   5622.000000  0    2280897.492   6097045.465   2246556.319
10 0 59263   5742.000000  0    2536098.357   6254675.491   1374594.455
10 0 59263   5862.000000  0    2748730.590   6298865.624    478430.659
10 0 59263   5982.000000  0    2913107.820   6229673.509   -426155.520
10 0 59263   6102.000000  0    3024417.338   6049250.051  -1323247.820
10 0 59263   6222.000000  0    3078840.344   5761780.984  -2197081.358
10 0 59263   6342.000000  0    3073651.753   5373388.695  -3032326.642
10 0 59263   6462.000000  0    3007297.134   4891995.550  -3814363.974
10 0 59263   6582.000000  0    2879444.247   4327152.920  -4529540.364
10 0 59263   6702.000000  0    2691009.006   3689842.779  -5165404.924
10 0 59263   6822.000000  0    2444156.175   2992256.147  -5710919.063
10 0 59263   6942.000000  0    2142275.698   2247553.687  -6156639.255
10 0 59263   7062.000000  0    1789934.157   1469613.598  -6494869.194
10 0 59263   7182.000000  0    1392804.589    672773.105  -6719780.454
10 0 59263   7302.000000  0     957575.257   -128432.372  -6827503.470
10 0 59263   7422.000000  0     491837.013   -919529.724  -6816187.199
10 0 59263   7542.000000  0       3953.093  -1686363.400  -6686025.656
10 0 59263   7662.000000  0    -497086.537  -2415340.936  -6439254.801
10 0 59263   7782.000000  0   -1001826.594  -3093669.140  -6080120.114
10 0 59263   7902.000000  0   -1500520.297  -3709576.433  -5614810.599
10 0 59263   8022.000000  0   -1983312.839  -4252516.889  -5051362.995
10 0 59263   8142.000000  0   -2440433.154  -4713355.427  -4399535.418
10 0 59263   8262.000000  0   -2862390.508  -5084528.871  -3670648.849
10 0 59263   8382.000000  0   -3240170.858  -5360178.389  -2877399.123
10 0 59263   8502.000000  0   -3565429.311  -5536251.460  -2033642.201
10 0 59263   8622.000000  0   -3830674.765  -5610570.200  -1154154.707
10 0 59263   8742.000000  0   -4029441.216  -5582863.234   -254373.214
10 0 59263   8862.000000  0   -4156440.580  -5454759.346    649882.182
10 0 59263   8982.000000  0   -4207693.444  -5229742.718   1542693.960
10 0 59263   9102.000000  0   -4180633.826  -4913069.772   2408337.046
10 0 59263   9222.000000  0   -4074184.665  -4511649.829   3231564.418
10 0 59263   9342.000000  0   -3888803.175  -4033893.951   3997882.647
10 0 59263   9462.000000  0   -3626494.425  -3489535.115   4693812.485
10 0 59263   9582.000000  0   -3290792.775  -2889423.795   5307127.548
10 0 59263   9702.000000  0   -2886712.983  -2245306.258   5827067.035
10 0 59263   9822.000000  0   -2420671.996  -1569590.859   6244520.977
10 0 59263   9942.000000  0   -1900383.513   -875105.508   6552186.102
99
